satname,norad_id,inclination_deg,eccentricity,mean_motion_rev_per_day,perigee_km,apogee_km,l1,l2
STARLINK-1327,45555,53.0556,0.0001415,15.06402251,546.2247231113297,548.1845948008149,1 45555U 20025AA  25286.57885071  .00006821  00000+0  47634-3 0  9990,2 45555  53.0556  27.0245 0001415  90.6474 269.4677 15.06402251303194
STARLINK-1336,45557,53.0363,0.000308,16.02619877,265.11981024812485,269.21331724339143,1 45557U 20025AC  25286.60076044  .00540133  14402-3  88796-3 0  9996,2 45557  53.0363 328.6963 0003080  43.4008 316.7265 16.02619877304010
STARLINK-1356,45564,53.0559,0.0001999,15.06410508,545.794981880028,548.5637233578045,1 45564U 20025AK  25286.58251572  .00003583  00000+0  25924-3 0  9994,2 45564  53.0559  27.0069 0001999 102.6718 257.4495 15.06410508303192
STARLINK-1357,45565,53.0646,0.0005117,15.29349799,474.2466324837169,481.2629521439694,1 45565U 20025AL  25286.63163985  .00060048  00000+0  20761-2 0  9993,2 45565  53.0646  14.8603 0005117 253.0733 106.9705 15.29349799303372
STARLINK-1361,45567,53.0545,0.0001361,15.06409953,546.2385178076347,548.123589381823,1 45567U 20025AN  25286.46824364  .00002210  00000+0  16719-3 0  9997,2 45567  53.0545  27.5195 0001361  90.7367 269.3778 15.06409953303182
STARLINK-1363,45568,53.0543,0.0001333,15.10380329,534.1176947639124,535.9607475444709,1 45568U 20025AP  25286.66667824  .01509558  00000+0  82704-1 0  9999,2 45568  53.0543  26.8423 0001333  86.0371 206.5086 15.10380329  5857
STARLINK-1366,45569,53.0539,0.0001564,15.11961946,529.1368059347233,531.297739151174,1 45569U 20025AQ  25286.66667824  .01987250  00000+0  10473+0 0  9991,2 45569  53.0539  26.5302 0001564  73.6162 315.3377 15.11961946  5754
STARLINK-1376,45570,53.0552,0.0001449,15.06393277,546.2286770498959,548.2356490333459,1 45570U 20025AR  25286.46457292 -.00002541  00000+0 -15180-3 0  9993,2 45570  53.0552  27.5381 0001449  91.4197 268.6958 15.06393277303179
STARLINK-1320,45572,53.0587,0.0009048,15.39622167,441.05015952587837,453.40133595418865,1 45572U 20025AT  25286.55982190  .00074651  00000+0  18556-2 0  9993,2 45572  53.0587 334.8268 0009048 297.9640  62.0447 15.39622167303949
STARLINK-1321,45573,53.0548,0.0001595,15.06426556,546.0255887052735,548.2347489321273,1 45573U 20025AU  25286.51708688  .00010087  00000+0  69458-3 0  9999,2 45573  53.0548  17.3015 0001595  86.9375 273.1796 15.06426556303029
STARLINK-1328,45576,53.0538,0.0008478,15.6189113,376.46324239035766,387.9260607387505,1 45576U 20025AX  25286.66667824  .00206618  00000+0  22776-2 0  9992,2 45576  53.0538   0.3733 0008478 325.7905 197.1498 15.61891130  5893
STARLINK-1331,45578,53.0553,0.0001252,15.06436132,546.2337810004956,547.9678605508179,1 45578U 20025AZ  25286.62766572  .00017578  00000+0  11948-2 0  9994,2 45578  53.0553  16.8044 0001252  93.1354 266.9779 15.06436132303351
STARLINK-1333,45580,53.0551,0.0001431,15.06395069,546.2356512430197,548.2176903255977,1 45580U 20025BB  25286.56779644  .00002549  00000+0  18997-3 0  9998,2 45580  53.0551  27.0732 0001431  92.5795 267.5358 15.06395069303196
STARLINK-1335,45581,53.0552,0.0001292,15.06394344,546.3341355445509,548.1236500912546,1 45581U 20025BC  25286.63874445 -.00001439  00000+0 -77758-4 0  9992,2 45581  53.0552  16.7550 0001292  87.2915 272.8222 15.06394344303342
STARLINK-1337,45582,53.0545,0.0001433,15.06428446,546.1319864619154,548.1167663723963,1 45582U 20025BD  25286.52815597  .00020864  00000+0  14143-2 0  9992,2 45582  53.0545  17.2530 0001433  73.0858 287.0288 15.06428446303324
STARLINK-1347,45586,53.0578,0.000496,15.28567246,476.69283470602113,483.49620037141995,1 45586U 20025BH  25286.61952581  .00053065  00000+0  18825-2 0  9991,2 45586  53.0578   5.3060 0004960 262.8113  97.2322 15.28567246303494
STARLINK-1360,45588,53.0474,0.0006096,15.71119193,351.5922485710098,359.8021392202072,1 45588U 20025BK  25286.28421833  .00110592  00000+0  85316-3 0  9996,2 45588  53.0474 291.2108 0006096  53.7121 306.4458 15.71119193304519
STARLINK-1364,45589,53.0562,0.0001373,15.0641779,546.2061918161271,548.1078775580518,1 45589U 20025BL  25286.46548947  .00013351  00000+0  91305-3 0  9993,2 45589  53.0562  17.5382 0001373  87.3392 272.7754 15.06417790303310
STARLINK-1365,45590,53.0527,0.000137,15.06413477,546.2214860885779,548.1190202759499,1 45590U 20025BM  25286.61384334  .00006059  00000+0  42516-3 0  9997,2 45590  53.0527  46.8644 0001370  85.4226 274.6919 15.06413477302930
STARLINK-1443,45660,53.0552,0.0001207,15.06429215,546.2861408544213,547.9578983817582,1 45660U 20035D   25286.53275581  .00018516  00000+0  12577-2 0  9994,2 45660  53.0552   7.2340 0001207  86.3790 273.7337 15.06429215296556
STARLINK-1446,45663,53.0285,0.0002026,15.31370767,470.3338161433512,473.1093788470562,1 45663U 20035G   25286.45551571  .00053576  00000+0  17434-2 0  9996,2 45663  53.0285 333.8532 0002026 222.6931 137.3912 15.31370767297016
STARLINK-1448,45665,53.0553,0.0001764,15.06403654,545.9787294670641,548.421988487311,1 45665U 20035J   25286.60281206  .00006566  00000+0  45923-3 0  9992,2 45665  53.0553   6.9158 0001764  97.9657 262.1532 15.06403654296551
STARLINK-1451,45668,53.0548,0.0001352,15.06433661,546.1721005651461,548.044686919613,1 45668U 20035M   25286.60650590  .00016962  00000+0  11538-2 0  9996,2 45668  53.0548   7.2181 0001352  80.1940 279.9201 15.06433661296561
STARLINK-1452,45669,53.0386,0.0008415,15.24488387,486.5406474338006,498.1036301643999,1 45669U 20035N   25286.47675304  .00023473  00000+0  95260-3 0  9992,2 45669  53.0386 351.1954 0008415 308.3495  51.6745 15.24488387296774
STARLINK-1453,45670,53.0535,0.0001431,15.06430846,546.1260171536742,548.1080248544849,1 45670U 20035P   25286.55025632  .00011125  00000+0  76397-3 0  9997,2 45670  53.0535 337.1569 0001431  89.3269 270.7884 15.06430846296869
STARLINK-1454,45671,53.0544,0.0001472,15.06413763,546.1499715480231,548.1887817453089,1 45671U 20035Q   25286.62860272  .00012746  00000+0  87273-3 0  9998,2 45671  53.0544   6.8021 0001472  85.0059 275.1098 15.06413763296559
STARLINK-1456,45673,53.0563,0.0001608,15.06424769,546.0220617194191,548.2492294022304,1 45673U 20035S   25286.51064363  .00015505  00000+0  10568-2 0  9993,2 45673  53.0563   7.3367 0001608 114.8963 245.2194 15.06424769296550
STARLINK-1457,45674,53.0555,0.000147,15.06433737,546.0901497833684,548.1261718606493,1 45674U 20035T   25286.51800380  .00018005  00000+0  12234-2 0  9991,2 45674  53.0555   7.2979 0001470  92.2456 267.8701 15.06433737296529
STARLINK-1458,45675,53.0548,0.0001534,15.06411935,546.1126362661425,548.237321981338,1 45675U 20035U   25286.50696050  .00007817  00000+0  54293-3 0  9999,2 45675  53.0548   7.3459 0001534  99.6588 260.4574 15.06411935296516
STARLINK-1460,45676,53.0544,0.0001319,15.06423269,546.2267986543029,548.0536867909323,1 45676U 20035V   25286.61016942  .00018657  00000+0  12673-2 0  9997,2 45676  53.0544   6.8832 0001319  76.0806 284.0329 15.06423269296529
STARLINK-1392,45677,53.0566,0.0001479,15.06397782,546.1940957400457,548.2426158542894,1 45677U 20035W   25286.62122966 -.00000493  00000+0 -14224-4 0  9990,2 45677  53.0566   6.8355 0001479  94.4246 265.6912 15.06397782296560
STARLINK-1394,45679,53.0554,0.0001263,15.06378515,546.4027273118918,548.1520869911383,1 45679U 20035Y   25286.61847369 -.00004660  00000+0 -29432-3 0  9998,2 45679  53.0554 356.8448 0001263 102.3921 257.7209 15.06378515296700
STARLINK-1402,45685,53.0548,0.0001607,15.09569572,536.4029322505712,538.6256225711304,1 45685U 20035AE  25286.66667824  .00118389  00000+0  71877-2 0  9997,2 45685  53.0548 351.0352 0001607  57.4565  47.4185 15.09569572  5856
STARLINK-1404,45686,53.0564,0.0001601,15.06387954,546.1397232244217,548.3572316542977,1 45686U 20035AF  25286.57790892 -.00005029  00000+0 -31908-3 0  9990,2 45686  53.0564 357.0304 0001601  85.5685 274.5487 15.06387954296700
STARLINK-1413,45689,53.0555,0.0001323,15.06417665,546.2412013350995,548.0736342380451,1 45689U 20035AJ  25286.59634908  .00015384  00000+0  10489-2 0  9993,2 45689  53.0555 356.9427 0001323  85.2785 274.8355 15.06417665296616
STARLINK-1417,45693,53.0545,0.0001282,15.06425489,546.2456192556028,548.0212585961444,1 45693U 20035AN  25286.45995631  .00014144  00000+0  96585-3 0  9991,2 45693  53.0545 357.5619 0001282  78.1283 281.9850 15.06425489296676
STARLINK-1420,45695,53.0557,0.000139,15.06398678,546.2529856680922,548.1782336935821,1 45695U 20035AQ  25286.52720938  .00001172  00000+0  97564-4 0  9993,2 45695  53.0557 337.2496 0001390  94.2645 265.8503 15.06398678296978
STARLINK-1422,45696,53.0552,0.0001391,15.0641852,546.1914892981522,548.1181054761846,1 45696U 20035AR  25286.47102783  .00016590  00000+0  11294-2 0  9994,2 45696  53.0552 357.5113 0001391  98.0559 262.0588 15.06418520296670
STARLINK-1351,45697,53.0553,0.0001414,15.06410034,546.2015654064635,548.1600452818147,1 45697U 20035AS  25286.44706618  .00007412  00000+0  51585-3 0  9990,2 45697  53.0553 337.6172 0001414  86.0131 274.1020 15.06410034296964
STARLINK-1398,45699,53.0522,0.0001309,15.46197518,426.97076846591153,428.7525789186857,1 45699U 20035AU  25286.31557007  .00129158  00000+0  25534-2 0  9990,2 45699  53.0522 303.3171 0001309 315.3381  44.7519 15.46197518297439
STARLINK-1400,45700,53.0547,0.0001492,15.06403862,546.1664612509494,548.2329817286427,1 45700U 20035AV  25286.55395203 -.00000844  00000+0 -37790-4 0  9998,2 45700  53.0547 337.1386 0001492 100.4312 259.6845 15.06403862296977
STARLINK-1403,45701,53.0554,0.0001452,15.06409621,546.1765147867682,548.1876274450187,1 45701U 20035AW  25286.58343406  .00002810  00000+0  20743-3 0  9992,2 45701  53.0554 337.0057 0001452  93.9457 266.1698 15.06409621296970
STARLINK-1407,45703,53.0434,0.0010422,15.37422796,446.6134016773285,460.85375270842997,1 45703U 20035AY  25286.30951147  .00107486  00000+0  28522-2 0  9998,2 45703  53.0434 301.1066 0010422 336.1332  23.9186 15.37422796297460
